[{"OBJECT_NAME":"HST","OBJECT_ID":"1990-037B","EPOCH":"2026-03-09T03:50:04.164288","MEAN_MOTION":15.29473555,"ECCENTRICITY":0.00018372,"INCLINATION":28.4717,"RA_OF_ASC_NODE":43.6133,"ARG_OF_PERICENTER":120.9992,"MEAN_ANOMALY":239.0785,"EPHEMERIS_TYPE":0,"CLASSIFICATION_TYPE":"U","NORAD_CAT_ID":20580,"ELEMENT_SET_NO":999,"REV_AT_EPOCH":77323,"BSTAR":0.0003002261,"MEAN_MOTION_DOT":9.063e-5,"MEAN_MOTION_DDOT":0},{"OBJECT_NAME":"STARLINK-35025","OBJECT_ID":"2025-192AC","EPOCH":"2026-03-09T17:12:35.094240","MEAN_MOTION":15.3017233,"ECCENTRICITY":8.318e-5,"INCLINATION":53.1606,"RA_OF_ASC_NODE":232.5559,"ARG_OF_PERICENTER":84.1219,"MEAN_ANOMALY":275.9876,"EPHEMERIS_TYPE":0,"CLASSIFICATION_TYPE":"U","NORAD_CAT_ID":65430,"ELEMENT_SET_NO":999,"REV_AT_EPOCH":2938,"BSTAR":0.00075005278,"MEAN_MOTION_DOT":0.00021902,"MEAN_MOTION_DDOT":0}]
